{"epoch":1784762836,"count":18316,"objects":[{"id":"45446","name":"ONEWEB-0068","type":"PAYLOAD","l1":"1 45446U 20020Y   26203.47874500  .00000237  00000-0  63187-3 0  9995","l2":"2 45446  87.8894  14.0385 0001645  95.6382 264.4934 13.11413648307227"},{"id":"45447","name":"ONEWEB-0046","type":"PAYLOAD","l1":"1 45447U 20020Z   26203.47040298  .00000547  00000-0  15074-2 0  9990","l2":"2 45447  87.8891  14.0432 0001564  89.8968 270.2339 13.11416949307235"},{"id":"45448","name":"ONEWEB-0063","type":"PAYLOAD","l1":"1 45448U 20020AA  26202.43120902 -.00000471  00000-0 -13639-2 0  9990","l2":"2 45448  87.8899  14.2522 0001805  82.7060 277.4273 13.11417015307184"},{"id":"45449","name":"ONEWEB-0019","type":"PAYLOAD","l1":"1 45449U 20020AB  26203.00402244  .00000574  00000-0  15844-2 0  9999","l2":"2 45449  87.8892  14.1227 0001997  94.6440 265.4917 13.11417070307100"},{"id":"45450","name":"ONEWEB-0094","type":"PAYLOAD","l1":"1 45450U 20020AC  26203.43733466  .00000072  00000-0  15254-3 0  9990","l2":"2 45450  87.9163 358.8399 0001869 102.9110 257.2231 13.17649485310955"},{"id":"45451","name":"ONEWEB-0087","type":"PAYLOAD","l1":"1 45451U 20020AD  26203.43296176 -.00000387  00000-0 -11289-2 0  9997","l2":"2 45451  87.8906  14.0296 0001616  99.1237 261.0074 13.11418113307202"},{"id":"45452","name":"ONEWEB-0082","type":"PAYLOAD","l1":"1 45452U 20020AE  26202.89549171 -.00000451  00000-0 -13073-2 0  9998","l2":"2 45452  87.8899  14.1504 0001338  95.9513 264.1768 13.11418567307228"},{"id":"45453","name":"ONEWEB-0050","type":"PAYLOAD","l1":"1 45453U 20020AF  26203.39083642  .00001332  00000-0  13433-3 0  9999","l2":"2 45453  88.9276 228.4278 0003366 155.8055 204.3332 14.90487285345628"},{"id":"45454","name":"ONEWEB-0034","type":"PAYLOAD","l1":"1 45454U 20020AG  26203.46718444  .00000641  00000-0  17738-2 0  9996","l2":"2 45454  87.8899  14.0461 0001794  91.1598 268.9736 13.11417450307214"},{"id":"45455","name":"ONEWEB-0060","type":"PAYLOAD","l1":"1 45455U 20020AH  26203.04059956 -.00000460  00000-0 -13331-2 0  9993","l2":"2 45455  87.8892  14.1262 0001511 126.4263 233.7004 13.11416350307111"},{"id":"45456","name":"ONEWEB-0086","type":"PAYLOAD","l1":"1 45456U 20020AJ  26203.47705155  .00000316  00000-0  85615-3 0  9993","l2":"2 45456  87.8898  14.0374 0002071 113.7640 246.3706 13.11415876307235"},{"id":"45457","name":"ONEWEB-0088","type":"PAYLOAD","l1":"1 45457U 20020AK  26202.99736598  .00000510  00000-0  14040-2 0  9994","l2":"2 45457  87.8906  14.1081 0001573  80.2486 279.8819 13.11418182307109"},{"id":"47258","name":"ONEWEB-0102","type":"PAYLOAD","l1":"1 47258U 20100A   26202.82187335 -.00000065  00000-0 -21630-3 0  9996","l2":"2 47258  87.8971 343.7884 0002099 102.5869 257.5495 13.12444468269276"},{"id":"47259","name":"ONEWEB-0109","type":"PAYLOAD","l1":"1 47259U 20100B   26202.83034531  .00000228  00000-0  59936-3 0  9996","l2":"2 47259  87.8981 343.7731 0002006  96.4620 263.6737 13.12444477269102"},{"id":"47260","name":"ONEWEB-0110","type":"PAYLOAD","l1":"1 47260U 20100C   26203.31488430  .00000296  00000-0  78662-3 0  9995","l2":"2 47260  87.8980 343.6609 0001923 107.7230 252.4109 13.12442716269334"},{"id":"47261","name":"ONEWEB-0111","type":"PAYLOAD","l1":"1 47261U 20100D   26203.34536618 -.00000356  00000-0 -10240-2 0  9997","l2":"2 47261  87.8981 343.6739 0001759  99.4920 260.6407 13.12443597269172"},{"id":"47262","name":"ONEWEB-0114","type":"PAYLOAD","l1":"1 47262U 20100E   26203.29963304  .00000506  00000-0  13711-2 0  9999","l2":"2 47262  87.8985 343.6812 0002026  94.0755 266.0605 13.12443421269125"},{"id":"47263","name":"ONEWEB-0117","type":"PAYLOAD","l1":"1 47263U 20100F   26202.68126530  .00000379  00000-0  10174-2 0  9992","l2":"2 47263  87.8978 343.7934 0001878  97.5430 262.5912 13.12443695269053"},{"id":"47264","name":"ONEWEB-0118","type":"PAYLOAD","l1":"1 47264U 20100G   26203.32504579  .00000007  00000-0 -15880-4 0  9998","l2":"2 47264  87.8979 343.6681 0001852  88.5183 271.6157 13.12441606269333"},{"id":"47265","name":"ONEWEB-0119","type":"PAYLOAD","l1":"1 47265U 20100H   26203.35045374 -.00000266  00000-0 -77441-3 0  9993","l2":"2 47265  87.8971 343.6768 0001861  96.6451 263.4889 13.12443720269318"},{"id":"47266","name":"ONEWEB-0120","type":"PAYLOAD","l1":"1 47266U 20100J   26203.29808102  .00000464  00000-0  12554-2 0  9994","l2":"2 47266  87.8970 343.6889 0002053  95.0773 265.0590 13.12443108269335"},{"id":"47267","name":"ONEWEB-0121","type":"PAYLOAD","l1":"1 47267U 20100K   26202.67618034  .00000133  00000-0  33410-3 0  9997","l2":"2 47267  87.8980 343.8017 0001593 103.3691 256.7615 13.12443384269164"},{"id":"47268","name":"ONEWEB-0122","type":"PAYLOAD","l1":"1 47268U 20100L   26202.82272703 -.00000021  00000-0 -94582-4 0  9990","l2":"2 47268  87.8979 343.7777 0002030  99.0132 261.1226 13.12442653269091"},{"id":"47269","name":"ONEWEB-0123","type":"PAYLOAD","l1":"1 47269U 20100M   26203.35214244 -.00000231  00000-0 -67791-3 0  9990","l2":"2 47269  87.8973 343.6752 0001826  94.2242 265.9096 13.12443970269303"},{"id":"47270","name":"ONEWEB-0124","type":"PAYLOAD","l1":"1 47270U 20100N   26203.34197678 -.00000393  00000-0 -11271-2 0  9992","l2":"2 47270  87.8968 343.6802 0001761  98.8733 261.2595 13.12443088269187"},{"id":"47271","name":"ONEWEB-0125","type":"PAYLOAD","l1":"1 47271U 20100P   26203.31995515  .00000180  00000-0  46552-3 0  9999","l2":"2 47271  87.8982 343.6722 0001547  95.1536 264.9770 13.12442700269240"},{"id":"47272","name":"ONEWEB-0126","type":"PAYLOAD","l1":"1 47272U 20100Q   26202.80677392 -.00000426  00000-0 -12190-2 0  9998","l2":"2 47272  87.8973 343.7872 0001961  95.0266 265.1087 13.12442600269240"},{"id":"47273","name":"ONEWEB-0127","type":"PAYLOAD","l1":"1 47273U 20100R   26203.30640730  .00000522  00000-0  14164-2 0  9999","l2":"2 47273  87.8969 343.6852 0001991  97.0556 263.0799 13.12443482269336"},{"id":"47274","name":"ONEWEB-0128","type":"PAYLOAD","l1":"1 47274U 20100S   26203.32842538 -.00000137  00000-0 -41743-3 0  9990","l2":"2 47274  87.8967 343.6945 0001891 106.4867 253.6469 13.12442298269352"},{"id":"47275","name":"ONEWEB-0129","type":"PAYLOAD","l1":"1 47275U 20100T   26203.30810770  .00000442  00000-0  11928-2 0  9990","l2":"2 47275  87.8981 343.6755 0002866  85.7218 274.4238 13.12442409269281"}]}