OBJECT_NAME,OBJECT_ID,EPOCH,MEAN_MOTION,ECCENTRICITY,INCLINATION,RA_OF_ASC_NODE,ARG_OF_PERICENTER,MEAN_ANOMALY,EPHEMERIS_TYPE,CLASSIFICATION_TYPE,NORAD_CAT_ID,ELEMENT_SET_NO,REV_AT_EPOCH,BSTAR,MEAN_MOTION_DOT,MEAN_MOTION_DDOT
ONEWEB-0068,2020-020Y,2026-07-22T11:29:23.568000,13.11413648,.00016446,87.8894,14.0385,95.6382,264.4934,0,U,45446,999,30722,.63186621E-3,.237E-5,0
ONEWEB-0046,2020-020Z,2026-07-22T11:17:22.817472,13.11416949,.00015636,87.8891,14.0432,89.8968,270.2339,0,U,45447,999,30723,.15074227E-2,.547E-5,0
ONEWEB-0063,2020-020AA,2026-07-21T10:20:56.459328,13.11417015,.00018055,87.8899,14.2522,82.7060,277.4273,0,U,45448,999,30718,-.13638584E-2,-.471E-5,0
ONEWEB-0019,2020-020AB,2026-07-22T00:05:47.538816,13.11417070,.00019968,87.8892,14.1227,94.6440,265.4917,0,U,45449,999,30710,.1584352E-2,.574E-5,0
ONEWEB-0094,2020-020AC,2026-07-22T10:29:45.714624,13.17649485,.00018688,87.9163,358.8399,102.9110,257.2231,0,U,45450,999,31095,.15254411E-3,.72E-6,0
ONEWEB-0087,2020-020AD,2026-07-22T10:23:27.896064,13.11418113,.00016156,87.8906,14.0296,99.1237,261.0074,0,U,45451,999,30720,-.11289438E-2,-.387E-5,0
ONEWEB-0082,2020-020AE,2026-07-21T21:29:30.483744,13.11418567,.00013384,87.8899,14.1504,95.9513,264.1768,0,U,45452,999,30722,-.13072937E-2,-.451E-5,0
ONEWEB-0050,2020-020AF,2026-07-22T09:22:48.266688,14.90487285,.00033656,88.9276,228.4278,155.8055,204.3332,0,U,45453,999,34562,.13432849E-3,.1332E-4,0
ONEWEB-0034,2020-020AG,2026-07-22T11:12:44.735616,13.11417450,.00017936,87.8899,14.0461,91.1598,268.9736,0,U,45454,999,30721,.17738054E-2,.641E-5,0
ONEWEB-0060,2020-020AH,2026-07-22T00:58:27.801984,13.11416350,.00015113,87.8892,14.1262,126.4263,233.7004,0,U,45455,999,30711,-.13331477E-2,-.46E-5,0
ONEWEB-0086,2020-020AJ,2026-07-22T11:26:57.253920,13.11415876,.00020708,87.8898,14.0374,113.7640,246.3706,0,U,45456,999,30723,.85615033E-3,.316E-5,0
ONEWEB-0088,2020-020AK,2026-07-21T23:56:12.420672,13.11418182,.00015726,87.8906,14.1081,80.2486,279.8819,0,U,45457,999,30710,.14039863E-2,.51E-5,0
ONEWEB-0102,2020-100A,2026-07-21T19:43:29.857440,13.12444468,.00020988,87.8971,343.7884,102.5869,257.5495,0,U,47258,999,26927,-.21629699E-3,-.65E-6,0
ONEWEB-0109,2020-100B,2026-07-21T19:55:41.834784,13.12444477,.00020056,87.8981,343.7731,96.4620,263.6737,0,U,47259,999,26910,.59935925E-3,.228E-5,0
ONEWEB-0110,2020-100C,2026-07-22T07:33:26.003520,13.12442716,.00019227,87.8980,343.6609,107.7230,252.4109,0,U,47260,999,26933,.78662099E-3,.296E-5,0
ONEWEB-0111,2020-100D,2026-07-22T08:17:19.637952,13.12443597,.00017587,87.8981,343.6739,99.4920,260.6407,0,U,47261,999,26917,-.10239731E-2,-.356E-5,0
ONEWEB-0114,2020-100E,2026-07-22T07:11:28.294656,13.12443421,.00020257,87.8985,343.6812,94.0755,266.0605,0,U,47262,999,26912,.13711193E-2,.506E-5,0
ONEWEB-0117,2020-100F,2026-07-21T16:21:01.321920,13.12443695,.00018781,87.8978,343.7934,97.5430,262.5912,0,U,47263,999,26905,.10174302E-2,.379E-5,0
ONEWEB-0118,2020-100G,2026-07-22T07:48:03.956256,13.12441606,.00018523,87.8979,343.6681,88.5183,271.6157,0,U,47264,999,26933,-.15880461E-4,.7E-7,0
ONEWEB-0119,2020-100H,2026-07-22T08:24:39.203136,13.12443720,.00018608,87.8971,343.6768,96.6451,263.4889,0,U,47265,999,26931,-.77440738E-3,-.266E-5,0
ONEWEB-0120,2020-100J,2026-07-22T07:09:14.200128,13.12443108,.00020529,87.8970,343.6889,95.0773,265.0590,0,U,47266,999,26933,.12553504E-2,.464E-5,0
ONEWEB-0121,2020-100K,2026-07-21T16:13:41.981376,13.12443384,.00015933,87.8980,343.8017,103.3691,256.7615,0,U,47267,999,26916,.33410061E-3,.133E-5,0
ONEWEB-0122,2020-100L,2026-07-21T19:44:43.615392,13.12442653,.00020305,87.8979,343.7777,99.0132,261.1226,0,U,47268,999,26909,-.94581542E-4,-.21E-6,0
ONEWEB-0123,2020-100M,2026-07-22T08:27:05.106816,13.12443970,.00018259,87.8973,343.6752,94.2242,265.9096,0,U,47269,999,26930,-.67790767E-3,-.231E-5,0
ONEWEB-0124,2020-100N,2026-07-22T08:12:26.793792,13.12443088,.00017607,87.8968,343.6802,98.8733,261.2595,0,U,47270,999,26918,-.1127103E-2,-.393E-5,0
ONEWEB-0125,2020-100P,2026-07-22T07:40:44.124960,13.12442700,.0001547,87.8982,343.6722,95.1536,264.9770,0,U,47271,999,26924,.4655229E-3,.18E-5,0
ONEWEB-0126,2020-100Q,2026-07-21T19:21:45.266688,13.12442600,.00019612,87.8973,343.7872,95.0266,265.1087,0,U,47272,999,26924,-.12190439E-2,-.426E-5,0
ONEWEB-0127,2020-100R,2026-07-22T07:21:13.590720,13.12443482,.0001991,87.8969,343.6852,97.0556,263.0799,0,U,47273,999,26933,.14164396E-2,.522E-5,0
ONEWEB-0128,2020-100S,2026-07-22T07:52:55.952832,13.12442298,.00018912,87.8967,343.6945,106.4867,253.6469,0,U,47274,999,26935,-.41743055E-3,-.137E-5,0
ONEWEB-0129,2020-100T,2026-07-22T07:23:40.505280,13.12442409,.00028664,87.8981,343.6755,85.7218,274.4238,0,U,47275,999,26928,.1192774E-2,.442E-5,0
